[{"OBJECT_NAME":"STARLINK-30392","OBJECT_ID":"2023-141R","EPOCH":"2026-03-09T19:55:04.124640","MEAN_MOTION":15.30187316,"ECCENTRICITY":9.663e-5,"INCLINATION":53.1598,"RA_OF_ASC_NODE":283.1751,"ARG_OF_PERICENTER":102.9029,"MEAN_ANOMALY":257.208,"EPHEMERIS_TYPE":0,"CLASSIFICATION_TYPE":"U","NORAD_CAT_ID":57855,"ELEMENT_SET_NO":999,"REV_AT_EPOCH":14035,"BSTAR":1.7932475e-5,"MEAN_MOTION_DOT":1.72e-6,"MEAN_MOTION_DDOT":0},{"OBJECT_NAME":"NEXSAT-1","OBJECT_ID":"2024-024E","EPOCH":"2026-03-09T22:47:24.778176","MEAN_MOTION":15.32166372,"ECCENTRICITY":0.00099795,"INCLINATION":97.3124,"RA_OF_ASC_NODE":144.1918,"ARG_OF_PERICENTER":108.5709,"MEAN_ANOMALY":251.6617,"EPHEMERIS_TYPE":0,"CLASSIFICATION_TYPE":"U","NORAD_CAT_ID":58921,"ELEMENT_SET_NO":999,"REV_AT_EPOCH":11669,"BSTAR":0.00031433612,"MEAN_MOTION_DOT":9.702e-5,"MEAN_MOTION_DDOT":0}]
